#aV2013 12 14  0  0  0.00000000     288 DD+AD WGS84 FIT  NGA
## 1770 518400.00000000   300.00000000 56640 0.0000000000000
+   31     1  2  3  4  5  6  7  8  9 10 11 12 13 14 15 16 17
+         18 19 20 21 22 23 24 25 26 27 28 29 31 32  0  0  0
+          0  0  0  0  0  0  0  0  0  0  0  0  0  0  0  0  0
+          0  0  0  0  0  0  0  0  0  0  0  0  0  0  0  0  0
+          0  0  0  0  0  0  0  0  0  0  0  0  0  0  0  0  0
++         2  2  2  2  2  2  2  2  2  2  2  2  2  2  2  2  2
++         2  2  2  2  2  2  2  2  2  2  2  2  2  2  0  0  0
++         0  0  0  0  0  0  0  0  0  0  0  0  0  0  0  0  0
++         0  0  0  0  0  0  0  0  0  0  0  0  0  0  0  0  0
++         0  0  0  0  0  0  0  0  0  0  0  0  0  0  0  0  0
%c cc cc ccc ccc cccc cccc cccc cccc ccccc ccccc ccccc ccccc
%c cc cc ccc ccc cccc cccc cccc cccc ccccc ccccc ccccc ccccc
%f  0.0000000  0.000000000  0.00000000000  0.000000000000000
%f  0.0000000  0.000000000  0.00000000000  0.000000000000000
%i    0    0    0    0      0      0      0      0         0
%i    0    0    0    0      0      0      0      0         0
/*      NGA, ST. LOUIS,MO.                                  
/*   EPHEMERIS COMPUTED FROM  1 DAYS OF DATA                
/*   EPOCHA SMOOTHER                                       
/* CCCCCCCCCCCCCCCCCCCCCCCCCCCCCCCCCCCCCCCCCCCCCCCCCCCCCCCCC
*  2013 12 14  8 45  0.00000000
P  1  13634.199310 -22590.714876   2405.116728     93.186047                    
V  1   1165.184353   4106.556181  31617.762504      0.028699                    
P  2 -17585.822964   4281.471066 -19027.753127    466.801922                    
V  2   9213.604224 -23228.865251 -14072.639316      0.021307                    
P  3  18249.466934   -157.121975  18819.610872    299.042510                    
V  3  15265.500708  19947.069121 -14063.988877      0.049320                    
P  4 -12039.125902 -10854.833592 -21318.730713      4.161770                    
V  4  12561.775713 -23322.371798   5101.222130      0.003593                    
P  5 -26500.584755   2380.795438   1437.391174   -395.409932                    
V  5  -2022.245759  -2993.675371 -31288.963284      0.009824                    
P  6  20091.118527   7851.994887  15801.447645    192.426363                    
V  6  10203.358237  17160.262031 -21181.645010      0.163195                    
P  7   3556.349722 -23372.032703  11842.532519    291.380466                    
V  7   9137.561596 -12136.868070 -27161.677026      0.041545                    
P  8  -4391.042491 -16715.115589  20114.417337     10.571979                    
V  8  14994.683647 -20443.058145 -14397.403535      0.003385                    
P  9  -5767.812971 -16749.709926  19212.962264    290.361824                    
V  9  12777.940505 -22141.043377 -15197.121898      0.027628                    
P 10 -20087.920329 -10096.568083 -14791.394824   -105.809233                    
V 10  18022.070983  -2693.030667 -22725.291414     -0.016513                    
P 11  12831.492622 -19770.585247  11546.073612   -446.589676                    
V 11   1780.533235  16182.254283  24943.430104     -0.033317                    
P 12 -17199.778095  11271.146074 -16737.222644    173.915255                    
V 12 -21204.598168  -1187.652398  21252.839243      0.023061                    
P 13  -3072.293249 -23602.478799 -11767.452747     50.181376                    
V 13   8389.759151  12297.469142 -27298.124546     -0.038007                    
P 14  15000.447926  21561.568584  -4209.997986    207.856467                    
V 14    635.772987   6015.888187  31321.932149     -0.011332                    
P 15 -11576.232265  10697.465274  21320.019112   -152.154577                    
V 15 -15860.257457 -22188.500685   2797.059847     -0.019932                    
P 16  26666.831914  -1017.080873   1827.718036   -238.894345                    
V 16   2315.855816   1708.565294 -31982.646176      0.012128                    
P 17 -15599.983505 -21249.392460  -3947.212803    -49.851931                    
V 17   -598.436863  -5754.395493  31222.831149     -0.036811                    
P 18   3975.596462  15875.459970  21372.415226    290.373083                    
V 18 -26219.719388   1640.589303   3392.985870      0.021210                    
P 19  12788.385285  -8036.106080  21711.484494   -425.275485                    
V 19  13124.077040  24583.890303   1781.049220     -0.026133                    
P 20  13356.786326 -14783.208073 -17716.169005    144.505444                    
V 20  22372.881848   -207.152529  17301.634003      0.030400                    
P 21   -186.859591  22837.201992  13734.445765   -332.987507                    
V 21 -10330.074957  13519.589951 -24154.292225     -0.017311                    
P 22  16596.615395  12102.320260  17113.428413    200.649749                    
V 22 -21281.707194   3298.806250  18368.880807      0.022895                    
P 23   5049.077403 -17465.955047 -19126.142129     21.655118                    
V 23  14492.631137  19999.390411 -14762.957182     -0.033202                    
P 24 -15598.797320  20337.588769   6814.608441    -19.783699                    
V 24   1371.274592  -9027.080598  30130.044087     -0.006431                    
P 25  -3542.308440  14931.646002 -21721.329942      2.228051                    
V 25 -27404.769680    992.871171   5271.203676      0.027431                    
P 26 -16914.054382  -4062.491203  19521.959408    222.687099                    
V 26 -11062.911802 -23632.802894 -13741.808998     -0.105472                    
P 27  18425.249882   4671.428912  18553.261826     -7.847816                    
V 27  11586.496355  20566.740324 -16655.879543     -0.028320                    
P 28 -13148.316029 -13176.173873  19612.457900    316.478841                    
V 28  23513.387226   -451.755869  15800.253255      0.029437                    
P 29    920.507576  22039.828009 -14783.396082    495.079117                    
V 29 -11004.671648 -15372.537573 -23498.794077      0.031131                    
P 31  12533.394715   7762.071556 -21916.683678    331.102068                    
V 31 -13778.969458  24598.101286   1115.707301      0.005115                    
P 32  22760.573252  -7066.270663 -11046.134108   -516.709231                    
V 32  14238.656586   3736.666356  27288.208473      0.053647                    
EOF
